YAOGAN-43 01D           
1 60461U 24148D   26068.43560480  .00010676  00000+0  37766-3 0  9999
2 60461  35.0010  61.7102 0002556 326.2473  33.8080 15.28369377 87008
STARLINK-34029          
1 63805U 25092B   26068.31763039  .00028942  00000+0  10565-2 0  9997
2 63805  42.9979 175.0003 0001862 278.4208  81.6432 15.27599019 48552
